{
  "type": "FeatureCollection",
  "features": [
    {
      "type": "Feature",
      "properties": {
        "norad_id": 37960,
        "name": "COSMOS 2251 DEB",
        "group": "cosmos-2251-debris",
        "lat": 37.3116136473753,
        "lon": -7.654867017310822,
        "alt_km": 776.9041644057033,
        "timestamp": "2025-12-13T20:38:51.405901+00:00",
        "meta_object_name": "COSMOS 2251 DEB",
        "meta_object_id": "1993-036BPK",
        "meta_epoch": "2025-12-13T06:19:13.281024",
        "meta_mean_motion": 14.0785868,
        "meta_eccentricity": 0.02488023,
        "meta_inclination": 74.0565,
        "meta_ra_of_asc_node": 185.9744,
        "meta_arg_of_pericenter": 204.5251,
        "meta_mean_anomaly": 154.3891,
        "meta_ephemeris_type": 0,
        "meta_classification_type": "U",
        "meta_norad_cat_id": 37960,
        "meta_element_set_no": 999,
        "meta_rev_at_epoch": 77413,
        "meta_bstar": 0.0011508414,
        "meta_mean_motion_dot": 2.566e-05,
        "meta_mean_motion_ddot": 0,
        "tle_line1": "1 37960U 93036BPK 25347.26334816  .00002566  00000+0  11508-2 0  9995",
        "tle_line2": "2 37960  74.0565 185.9744 0248802 204.5251 154.3891 14.07858680774135"
      },
      "geometry": {
        "type": "Point",
        "coordinates": [
          -7.654867017310822,
          37.3116136473753
        ]
      }
    },
    {
      "type": "Feature",
      "properties": {
        "norad_id": 37961,
        "name": "COSMOS 2251 DEB",
        "group": "cosmos-2251-debris",
        "lat": -10.01080817186483,
        "lon": -42.128987028544756,
        "alt_km": 677.4025113333455,
        "timestamp": "2025-12-13T20:38:51.405911+00:00",
        "meta_object_name": "COSMOS 2251 DEB",
        "meta_object_id": "1993-036BPL",
        "meta_epoch": "2025-12-13T03:18:27.462240",
        "meta_mean_motion": 14.57979799,
        "meta_eccentricity": 0.00406759,
        "meta_inclination": 74.0407,
        "meta_ra_of_asc_node": 136.3488,
        "meta_arg_of_pericenter": 216.8805,
        "meta_mean_anomaly": 142.9561,
        "meta_ephemeris_type": 0,
        "meta_classification_type": "U",
        "meta_norad_cat_id": 37961,
        "meta_element_set_no": 999,
        "meta_rev_at_epoch": 80071,
        "meta_bstar": 0.001729191,
        "meta_mean_motion_dot": 8.011e-05,
        "meta_mean_motion_ddot": 0,
        "tle_line1": "1 37961U 93036BPL 25347.13781785  .00008011  00000+0  17292-2 0  9990",
        "tle_line2": "2 37961  74.0407 136.3488 0040675 216.8805 142.9561 14.57979799800716"
      },
      "geometry": {
        "type": "Point",
        "coordinates": [
          -42.128987028544756,
          -10.01080817186483
        ]
      }
    },
    {
      "type": "Feature",
      "properties": {
        "norad_id": 37966,
        "name": "COSMOS 2251 DEB",
        "group": "cosmos-2251-debris",
        "lat": 26.04756476934394,
        "lon": 40.14636720512512,
        "alt_km": 522.8110373960089,
        "timestamp": "2025-12-13T20:38:51.405922+00:00",
        "meta_object_name": "COSMOS 2251 DEB",
        "meta_object_id": "1993-036BPR",
        "meta_epoch": "2025-12-09T09:36:29.677536",
        "meta_mean_motion": 15.12084932,
        "meta_eccentricity": 0.0008975,
        "meta_inclination": 73.977,
        "meta_ra_of_asc_node": 237.4896,
        "meta_arg_of_pericenter": 112.4769,
        "meta_mean_anomaly": 247.7375,
        "meta_ephemeris_type": 0,
        "meta_classification_type": "U",
        "meta_norad_cat_id": 37966,
        "meta_element_set_no": 999,
        "meta_rev_at_epoch": 85292,
        "meta_bstar": 0.003976161,
        "meta_mean_motion_dot": 0.00069139,
        "meta_mean_motion_ddot": 0,
        "tle_line1": "1 37966U 93036BPR 25343.40034349  .00069139  00000+0  39762-2 0  9992",
        "tle_line2": "2 37966  73.9770 237.4896 0008975 112.4769 247.7375 15.12084932852920"
      },
      "geometry": {
        "type": "Point",
        "coordinates": [
          40.14636720512512,
          26.04756476934394
        ]
      }
    },
    {
      "type": "Feature",
      "properties": {
        "norad_id": 37967,
        "name": "COSMOS 2251 DEB",
        "group": "cosmos-2251-debris",
        "lat": -64.19582770067306,
        "lon": -8.33065365260468,
        "alt_km": 665.2393624429442,
        "timestamp": "2025-12-13T20:38:51.405934+00:00",
        "meta_object_name": "COSMOS 2251 DEB",
        "meta_object_id": "1993-036BPS",
        "meta_epoch": "2025-12-12T16:48:51.802848",
        "meta_mean_motion": 14.40515653,
        "meta_eccentricity": 0.01509346,
        "meta_inclination": 74.0143,
        "meta_ra_of_asc_node": 137.4555,
        "meta_arg_of_pericenter": 276.2536,
        "meta_mean_anomaly": 82.1445,
        "meta_ephemeris_type": 0,
        "meta_classification_type": "U",
        "meta_norad_cat_id": 37967,
        "meta_element_set_no": 999,
        "meta_rev_at_epoch": 64735,
        "meta_bstar": 0.0023064533,
        "meta_mean_motion_dot": 8.381e-05,
        "meta_mean_motion_ddot": 0,
        "tle_line1": "1 37967U 93036BPS 25346.70059957  .00008381  00000+0  23065-2 0  9992",
        "tle_line2": "2 37967  74.0143 137.4555 0150934 276.2536  82.1445 14.40515653647359"
      },
      "geometry": {
        "type": "Point",
        "coordinates": [
          -8.33065365260468,
          -64.19582770067306
        ]
      }
    },
    {
      "type": "Feature",
      "properties": {
        "norad_id": 37968,
        "name": "COSMOS 2251 DEB",
        "group": "cosmos-2251-debris",
        "lat": -69.58773691533386,
        "lon": -141.57209689539636,
        "alt_km": 582.3632050045962,
        "timestamp": "2025-12-13T20:38:51.405945+00:00",
        "meta_object_name": "COSMOS 2251 DEB",
        "meta_object_id": "1993-036BPT",
        "meta_epoch": "2025-12-13T01:47:19.904352",
        "meta_mean_motion": 15.00631404,
        "meta_eccentricity": 0.00804189,
        "meta_inclination": 74.0008,
        "meta_ra_of_asc_node": 270.4748,
        "meta_arg_of_pericenter": 26.0645,
        "meta_mean_anomaly": 334.4556,
        "meta_ephemeris_type": 0,
        "meta_classification_type": "U",
        "meta_norad_cat_id": 37968,
        "meta_element_set_no": 999,
        "meta_rev_at_epoch": 60224,
        "meta_bstar": 0.001541289,
        "meta_mean_motion_dot": 0.00020898,
        "meta_mean_motion_ddot": 0,
        "tle_line1": "1 37968U 93036BPT 25347.07453593  .00020898  00000+0  15413-2 0  9993",
        "tle_line2": "2 37968  74.0008 270.4748 0080418  26.0645 334.4556 15.00631404602248"
      },
      "geometry": {
        "type": "Point",
        "coordinates": [
          -141.57209689539636,
          -69.58773691533386
        ]
      }
    },
    {
      "type": "Feature",
      "properties": {
        "norad_id": 37971,
        "name": "COSMOS 2251 DEB",
        "group": "cosmos-2251-debris",
        "lat": -7.538433963991214,
        "lon": 37.45963925165171,
        "alt_km": 781.0827493853585,
        "timestamp": "2025-12-13T20:38:51.405956+00:00",
        "meta_object_name": "COSMOS 2251 DEB",
        "meta_object_id": "1993-036BPW",
        "meta_epoch": "2025-12-11T10:40:32.065248",
        "meta_mean_motion": 14.48615122,
        "meta_eccentricity": 0.00674117,
        "meta_inclination": 73.9935,
        "meta_ra_of_asc_node": 44.173,
        "meta_arg_of_pericenter": 183.4136,
        "meta_mean_anomaly": 176.6574,
        "meta_ephemeris_type": 0,
        "meta_classification_type": "U",
        "meta_norad_cat_id": 37971,
        "meta_element_set_no": 999,
        "meta_rev_at_epoch": 60659,
        "meta_bstar": 0.0043286348,
        "meta_mean_motion_dot": 0.00016772,
        "meta_mean_motion_ddot": 0,
        "tle_line1": "1 37971U 93036BPW 25345.44481557  .00016772  00000+0  43286-2 0  9992",
        "tle_line2": "2 37971  73.9935  44.1730 0067411 183.4136 176.6574 14.48615122606595"
      },
      "geometry": {
        "type": "Point",
        "coordinates": [
          37.45963925165171,
          -7.538433963991214
        ]
      }
    },
    {
      "type": "Feature",
      "properties": {
        "norad_id": 37975,
        "name": "COSMOS 2251 DEB",
        "group": "cosmos-2251-debris",
        "lat": -8.701456815809253,
        "lon": -40.643898196608795,
        "alt_km": 593.4945877900627,
        "timestamp": "2025-12-13T20:38:51.405966+00:00",
        "meta_object_name": "COSMOS 2251 DEB",
        "meta_object_id": "1993-036BQA",
        "meta_epoch": "2025-12-11T15:00:34.783776",
        "meta_mean_motion": 14.75964152,
        "meta_eccentricity": 0.0096009,
        "meta_inclination": 74.0032,
        "meta_ra_of_asc_node": 326.255,
        "meta_arg_of_pericenter": 315.8702,
        "meta_mean_anomaly": 43.4838,
        "meta_ephemeris_type": 0,
        "meta_classification_type": "U",
        "meta_norad_cat_id": 37975,
        "meta_element_set_no": 999,
        "meta_rev_at_epoch": 69729,
        "meta_bstar": 0.0059326203,
        "meta_mean_motion_dot": 0.00044255,
        "meta_mean_motion_ddot": 0,
        "tle_line1": "1 37975U 93036BQA 25345.62540259  .00044255  00000+0  59326-2 0  9990",
        "tle_line2": "2 37975  74.0032 326.2550 0096009 315.8702  43.4838 14.75964152697299"
      },
      "geometry": {
        "type": "Point",
        "coordinates": [
          -40.643898196608795,
          -8.701456815809253
        ]
      }
    }
  ]
}